#aV2008  6  6  0  0   .00000000      96 DD+AD WGS84 FIT  NGA
## 1482 432000.00000000   900.00000000 54623  .0000000000000
+   31     2  3  4  5  6  7  8  9 10 11 12 13 14 15 16 17 18
+         19 20 21 22 23 24 25 26 27 28 29 30 31 32  0  0  0
+          0  0  0  0  0  0  0  0  0  0  0  0  0  0  0  0  0
+          0  0  0  0  0  0  0  0  0  0  0  0  0  0  0  0  0
+          0  0  0  0  0  0  0  0  0  0  0  0  0  0  0  0  0
++         0  0  0  0  0  0  0  0  0  0  0  0  0  0  0  0  0
++         0  0  0  0  0  0  0  0  0  0  0  0  0  0  0  0  0
++         0  0  0  0  0  0  0  0  0  0  0  0  0  0  0  0  0
++         0  0  0  0  0  0  0  0  0  0  0  0  0  0  0  0  0
++         0  0  0  0  0  0  0  0  0  0  0  0  0  0  0  0  0
%c cc cc ccc ccc cccc cccc cccc cccc ccccc ccccc ccccc ccccc
%c cc cc ccc ccc cccc cccc cccc cccc ccccc ccccc ccccc ccccc
%f  0.0000000  0.000000000  0.00000000000  0.000000000000000
%f  0.0000000  0.000000000  0.00000000000  0.000000000000000
%i    0    0    0    0      0      0      0      0         0
%i    0    0    0    0      0      0      0      0         0
/*      NGA, ST. LOUIS,MO.                                  
/*   EPHEMERIS COMPUTED FROM  3 DAYS OF DATA                
/* CCCCCCCCCCCCCCCCCCCCCCCCCCCCCCCCCCCCCCCCCCCCCCCCCCCCCCCCC
/* CCCCCCCCCCCCCCCCCCCCCCCCCCCCCCCCCCCCCCCCCCCCCCCCCCCCCCCCC
*  2008  6  6 16 45   .00000000                                                 
P  2  13173.550309  16426.440228 -16553.227798    206.085742                    
V  2   -461.931616  20720.919377  20029.984110       .003557                    
P  3 -24288.991589 -11005.856645  -2416.151249    238.475102                    
V  3   3828.564124  -2394.525268 -30527.735194       .051807                    
P  4   7197.182546  24040.806318  -8221.804345    -84.643851                    
V  4  -2868.137548  10596.777353  29172.872242      -.089928                    
P  5  21248.403399 -15710.228508   1422.444988   -397.615018                    
V  5    531.031215   4087.399688  31378.328612       .089189                    
P  6 -21374.039905 -14471.722863  -6003.951457    143.194906                    
V  6   8690.192967    -46.964302 -29880.184667       .070225                    
P  7  -8261.309374  21198.423812 -13674.563300    -26.341374                    
V  7  -3227.113376 -17179.018616 -24799.923833       .078021                    
P  8  -1169.950978  26201.178824  -2036.636622   -156.270673                    
V  8  -2487.493044  -2496.175047 -32438.814539      -.017080                    
P  9  13812.089117  -6565.613884  21063.850088    127.833710                    
V  9   3364.985026  28047.031723   6500.787467       .016709                    
P 10  18270.850237   4197.615671 -19077.711822     -2.053264                    
V 10 -19586.941779  13595.442799 -15561.713979      -.002283                    
P 11 -14041.997994  10102.948127  19943.481410     24.935805                    
V 11  -7819.795721 -24884.898503   7378.288300      -.003607                    
P 12  23550.446722 -10846.328645   5603.126721   -358.767879                    
V 12  -4380.026555   6110.739945  30822.072688       .003114                    
P 13  -8921.267084  11582.833644 -22292.409207    258.652518                    
V 13 -24295.087941 -13760.613696   2605.558496       .016118                    
P 14  -8725.333875 -17913.247942  17712.484645   -258.452847                    
V 14  20057.577811   9554.887355  19554.454844       .042569                    
P 15  24648.667771   5480.490195   8273.307061   -122.484488                    
V 15   8252.526537   7002.716651 -29284.710629      -.059695                    
P 16 -13987.633757  -8293.190669 -20966.387186    122.293446                    
V 16  22216.796462 -14879.736203  -8706.236807      -.015206                    
P 17   9033.862768  18225.018485  17207.098344     38.725698                    
V 17 -20059.301208  -8463.939415  19384.631903      -.000955                    
P 18  14571.026669 -18747.755247  11698.895360   -170.270135                    
V 18  14111.733254  -5175.612142 -26635.809684       .040258                    
P 19 -24111.184081  -6531.760113   9384.737334     31.461920                    
V 19  -8851.211758  -8106.753939 -28463.261557       .007558                    
P 20 -23039.122139  12608.129874   3689.231203    112.714555                    
V 20   2153.424349  -5417.959397  31015.554196      -.008454                    
P 21   5469.596945 -24129.682570  -8584.252024     62.077608                    
V 21   4222.289478  11242.566373 -28903.578413      -.011711                    
P 22   1349.513141 -17629.551061  19956.912736    211.388459                    
V 22  22137.905667 -11845.327824 -12109.002801      -.000641                    
P 23 -19875.860457   3376.595624 -17489.160260    357.902191                    
V 23 -18996.254360 -11077.300267  19284.678197       .020628                    
P 24  12919.882526 -14115.983047 -18365.841431     99.743573                    
V 24   1720.282970  23575.353121 -16485.289408       .028523                    
P 25 -10325.243172  15933.472832 -18288.784686   -204.797898                    
V 25  -5110.824949 -23379.451870 -16971.926714      -.307438                    
P 26  24311.008705  10331.996845   4332.781779    268.700787                    
V 26   4596.979423   4128.770939 -31481.865923       .075809                    
P 27  -5123.918204  22998.575786 -11448.448702    193.687531                    
V 27  -4301.207306 -15211.438745 -27193.296523       .026307                    
P 28  -3009.634531  17931.923497  19630.044566    -19.775192                    
V 28 -21236.225095  11681.006194 -14535.123880      -.002706                    
P 29  12453.013227 -10123.151949 -21037.370198    -42.653764                    
V 29  23575.263641  13190.687509   7593.427830       .001710                    
P 30  17952.861506 -18548.356541  -6362.985026     79.891397                    
V 30   8034.401029  -1982.006875  30160.481770       .016998                    
P 31  -7924.691744 -23431.592157  -9323.526799    -22.511112                    
V 31   1690.400317 -12284.865081  28918.522242      -.013244                    
P 32 -22201.638991    485.847809  14881.608837    294.602340                    
V 32  15072.249971 -10362.334656  23672.231904       .044894                    
EOF
